[{"OBJECT_NAME":"YAOGAN-36 03C","OBJECT_ID":"2022-160E","EPOCH":"2026-03-09T20:06:06.577632","MEAN_MOTION":15.22991504,"ECCENTRICITY":0.00114517,"INCLINATION":35.0077,"RA_OF_ASC_NODE":244.2786,"ARG_OF_PERICENTER":217.8015,"MEAN_ANOMALY":142.1896,"EPHEMERIS_TYPE":0,"CLASSIFICATION_TYPE":"U","NORAD_CAT_ID":54376,"ELEMENT_SET_NO":999,"REV_AT_EPOCH":18289,"BSTAR":-5.118835e-6,"MEAN_MOTION_DOT":-1.61e-6,"MEAN_MOTION_DDOT":0},{"OBJECT_NAME":"STARLINK-30873","OBJECT_ID":"2023-171V","EPOCH":"2026-03-09T22:00:01.999584","MEAN_MOTION":15.26671592,"ECCENTRICITY":0.00011318,"INCLINATION":42.9997,"RA_OF_ASC_NODE":283.5385,"ARG_OF_PERICENTER":303.4192,"MEAN_ANOMALY":66.6377,"EPHEMERIS_TYPE":0,"CLASSIFICATION_TYPE":"U","NORAD_CAT_ID":58249,"ELEMENT_SET_NO":999,"REV_AT_EPOCH":577,"BSTAR":0.0023010917,"MEAN_MOTION_DOT":0.00061854,"MEAN_MOTION_DDOT":0}]
